{"type": "FeatureCollection", "features": [{"type": "Feature", "geometry": {"type": "Point", "coordinates": [91.07723, 25.18982]}, "properties": {"grid_id": 1}}, {"type": "Feature", "geometry": {"type": "Point", "coordinates": [91.10699, 25.1902]}, "properties": {"grid_id": 2}}, {"type": "Feature", "geometry": {"type": "Point", "coordinates": [91.22603, 25.19167]}, "properties": {"grid_id": 3}}, {"type": "Feature", "geometry": {"type": "Point", "coordinates": [91.28556, 25.19238]}, "properties": {"grid_id": 4}}, {"type": "Feature", "geometry": {"type": "Point", "coordinates": [91.58352, 25.16844]}, "properties": {"grid_id": 5}}, {"type": "Feature", "geometry": {"type": "Point", "coordinates": [91.82163, 25.17053]}, "properties": {"grid_id": 6}}, {"type": "Feature", "geometry": {"type": "Point", "coordinates": [90.66171, 25.12967]}, "properties": {"grid_id": 7}}, {"type": "Feature", "geometry": {"type": "Point", "coordinates": [91.19707, 25.13716]}, "properties": {"grid_id": 8}}, {"type": "Feature", "geometry": {"type": "Point", "coordinates": [91.52433, 25.14078]}, "properties": {"grid_id": 9}}, {"type": "Feature", "geometry": {"type": "Point", "coordinates": [91.73262, 25.14271]}, "properties": {"grid_id": 10}}, {"type": "Feature", "geometry": {"type": "Point", "coordinates": [91.82189, 25.14344]}, "properties": {"grid_id": 11}}, {"type": "Feature", "geometry": {"type": "Point", "coordinates": [91.85165, 25.14368]}, "properties": {"grid_id": 12}}, {"type": "Feature", "geometry": {"type": "Point", "coordinates": [90.60277, 25.10165]}, "properties": {"grid_id": 13}}, {"type": "Feature", "geometry": {"type": "Point", "coordinates": [90.72169, 25.10353]}, "properties": {"grid_id": 14}}, {"type": "Feature", "geometry": {"type": "Point", "coordinates": [91.19747, 25.11008]}, "properties": {"grid_id": 15}}, {"type": "Feature", "geometry": {"type": "Point", "coordinates": [91.22721, 25.11044]}, "properties": {"grid_id": 16}}, {"type": "Feature", "geometry": {"type": "Point", "coordinates": [91.6734, 25.1151]}, "properties": {"grid_id": 17}}, {"type": "Feature", "geometry": {"type": "Point", "coordinates": [91.70314, 25.11536]}, "properties": {"grid_id": 18}}, {"type": "Feature", "geometry": {"type": "Point", "coordinates": [91.73289, 25.11562]}, "properties": {"grid_id": 19}}, {"type": "Feature", "geometry": {"type": "Point", "coordinates": [90.6033, 25.07458]}, "properties": {"grid_id": 20}}, {"type": "Feature", "geometry": {"type": "Point", "coordinates": [90.90055, 25.07909]}, "properties": {"grid_id": 21}}, {"type": "Feature", "geometry": {"type": "Point", "coordinates": [91.43576, 25.0857]}, "properties": {"grid_id": 22}}, {"type": "Feature", "geometry": {"type": "Point", "coordinates": [91.49524, 25.08631]}, "properties": {"grid_id": 23}}, {"type": "Feature", "geometry": {"type": "Point", "coordinates": [91.6142, 25.08747]}, "properties": {"grid_id": 24}}, {"type": "Feature", "geometry": {"type": "Point", "coordinates": [91.79266, 25.08903]}, "properties": {"grid_id": 25}}, {"type": "Feature", "geometry": {"type": "Point", "coordinates": [91.94139, 25.09017]}, "properties": {"grid_id": 26}}, {"type": "Feature", "geometry": {"type": "Point", "coordinates": [90.66325, 25.04846]}, "properties": {"grid_id": 27}}, {"type": "Feature", "geometry": {"type": "Point", "coordinates": [90.72269, 25.04939]}, "properties": {"grid_id": 28}}, {"type": "Feature", "geometry": {"type": "Point", "coordinates": [90.78213, 25.05029]}, "properties": {"grid_id": 29}}, {"type": "Feature", "geometry": {"type": "Point", "coordinates": [91.04963, 25.05404]}, "properties": {"grid_id": 30}}, {"type": "Feature", "geometry": {"type": "Point", "coordinates": [91.40637, 25.0583]}, "properties": {"grid_id": 31}}, {"type": "Feature", "geometry": {"type": "Point", "coordinates": [91.46584, 25.05892]}, "properties": {"grid_id": 32}}, {"type": "Feature", "geometry": {"type": "Point", "coordinates": [91.70372, 25.06119]}, "properties": {"grid_id": 33}}, {"type": "Feature", "geometry": {"type": "Point", "coordinates": [91.8524, 25.06242]}, "properties": {"grid_id": 34}}, {"type": "Feature", "geometry": {"type": "Point", "coordinates": [90.7529, 25.02277]}, "properties": {"grid_id": 35}}, {"type": "Feature", "geometry": {"type": "Point", "coordinates": [90.84204, 25.02409]}, "properties": {"grid_id": 36}}, {"type": "Feature", "geometry": {"type": "Point", "coordinates": [90.87175, 25.02452]}, "properties": {"grid_id": 37}}, {"type": "Feature", "geometry": {"type": "Point", "coordinates": [91.05005, 25.02696]}, "properties": {"grid_id": 38}}, {"type": "Feature", "geometry": {"type": "Point", "coordinates": [91.19866, 25.02884]}, "properties": {"grid_id": 39}}, {"type": "Feature", "geometry": {"type": "Point", "coordinates": [91.377, 25.03089]}, "properties": {"grid_id": 40}}, {"type": "Feature", "geometry": {"type": "Point", "coordinates": [91.55536, 25.03273]}, "properties": {"grid_id": 41}}, {"type": "Feature", "geometry": {"type": "Point", "coordinates": [91.82292, 25.03509]}, "properties": {"grid_id": 42}}, {"type": "Feature", "geometry": {"type": "Point", "coordinates": [90.7831, 24.99614]}, "properties": {"grid_id": 43}}, {"type": "Feature", "geometry": {"type": "Point", "coordinates": [90.87222, 24.99744]}, "properties": {"grid_id": 44}}, {"type": "Feature", "geometry": {"type": "Point", "coordinates": [91.34763, 25.00348]}, "properties": {"grid_id": 45}}, {"type": "Feature", "geometry": {"type": "Point", "coordinates": [91.37735, 25.00381]}, "properties": {"grid_id": 46}}, {"type": "Feature", "geometry": {"type": "Point", "coordinates": [91.52595, 25.00536]}, "properties": {"grid_id": 47}}, {"type": "Feature", "geometry": {"type": "Point", "coordinates": [91.76373, 25.00753]}, "properties": {"grid_id": 48}}, {"type": "Feature", "geometry": {"type": "Point", "coordinates": [91.82318, 25.00801]}, "properties": {"grid_id": 49}}, {"type": "Feature", "geometry": {"type": "Point", "coordinates": [90.63509, 24.96678]}, "properties": {"grid_id": 50}}, {"type": "Feature", "geometry": {"type": "Point", "coordinates": [90.72419, 24.96817]}, "properties": {"grid_id": 51}}, {"type": "Feature", "geometry": {"type": "Point", "coordinates": [90.81328, 24.96951]}, "properties": {"grid_id": 52}}, {"type": "Feature", "geometry": {"type": "Point", "coordinates": [91.0212, 24.97242]}, "properties": {"grid_id": 53}}, {"type": "Feature", "geometry": {"type": "Point", "coordinates": [91.28857, 24.97573]}, "properties": {"grid_id": 54}}, {"type": "Feature", "geometry": {"type": "Point", "coordinates": [91.70457, 24.97993]}, "properties": {"grid_id": 55}}, {"type": "Feature", "geometry": {"type": "Point", "coordinates": [91.764, 24.98044]}, "properties": {"grid_id": 56}}, {"type": "Feature", "geometry": {"type": "Point", "coordinates": [91.79372, 24.98068]}, "properties": {"grid_id": 57}}, {"type": "Feature", "geometry": {"type": "Point", "coordinates": [91.85316, 24.98115]}, "properties": {"grid_id": 58}}, {"type": "Feature", "geometry": {"type": "Point", "coordinates": [91.88288, 24.98138]}, "properties": {"grid_id": 59}}, {"type": "Feature", "geometry": {"type": "Point", "coordinates": [91.9126, 24.9816]}, "properties": {"grid_id": 60}}, {"type": "Feature", "geometry": {"type": "Point", "coordinates": [90.60592, 24.93924]}, "properties": {"grid_id": 61}}, {"type": "Feature", "geometry": {"type": "Point", "coordinates": [91.55631, 24.95148]}, "properties": {"grid_id": 62}}, {"type": "Feature", "geometry": {"type": "Point", "coordinates": [91.85341, 24.95406]}, "properties": {"grid_id": 63}}, {"type": "Feature", "geometry": {"type": "Point", "coordinates": [91.88312, 24.95429]}, "properties": {"grid_id": 64}}, {"type": "Feature", "geometry": {"type": "Point", "coordinates": [90.72518, 24.91403]}, "properties": {"grid_id": 65}}, {"type": "Feature", "geometry": {"type": "Point", "coordinates": [91.17054, 24.92016]}, "properties": {"grid_id": 66}}, {"type": "Feature", "geometry": {"type": "Point", "coordinates": [91.22993, 24.92087]}, "properties": {"grid_id": 67}}, {"type": "Feature", "geometry": {"type": "Point", "coordinates": [91.43782, 24.9232]}, "properties": {"grid_id": 68}}, {"type": "Feature", "geometry": {"type": "Point", "coordinates": [91.67543, 24.9255]}, "properties": {"grid_id": 69}}, {"type": "Feature", "geometry": {"type": "Point", "coordinates": [91.79425, 24.92651]}, "properties": {"grid_id": 70}}, {"type": "Feature", "geometry": {"type": "Point", "coordinates": [91.85366, 24.92698]}, "properties": {"grid_id": 71}}, {"type": "Feature", "geometry": {"type": "Point", "coordinates": [91.91307, 24.92742]}, "properties": {"grid_id": 72}}, {"type": "Feature", "geometry": {"type": "Point", "coordinates": [91.97249, 24.92784]}, "properties": {"grid_id": 73}}, {"type": "Feature", "geometry": {"type": "Point", "coordinates": [90.72568, 24.88695]}, "properties": {"grid_id": 74}}, {"type": "Feature", "geometry": {"type": "Point", "coordinates": [90.75536, 24.8874]}, "properties": {"grid_id": 75}}, {"type": "Feature", "geometry": {"type": "Point", "coordinates": [90.78504, 24.88785]}, "properties": {"grid_id": 76}}, {"type": "Feature", "geometry": {"type": "Point", "coordinates": [90.93345, 24.88998]}, "properties": {"grid_id": 77}}, {"type": "Feature", "geometry": {"type": "Point", "coordinates": [91.08187, 24.89196]}, "properties": {"grid_id": 78}}, {"type": "Feature", "geometry": {"type": "Point", "coordinates": [91.31939, 24.89482]}, "properties": {"grid_id": 79}}, {"type": "Feature", "geometry": {"type": "Point", "coordinates": [91.34908, 24.89516]}, "properties": {"grid_id": 80}}, {"type": "Feature", "geometry": {"type": "Point", "coordinates": [91.79451, 24.89942]}, "properties": {"grid_id": 81}}, {"type": "Feature", "geometry": {"type": "Point", "coordinates": [91.82421, 24.89966]}, "properties": {"grid_id": 82}}, {"type": "Feature", "geometry": {"type": "Point", "coordinates": [91.85391, 24.89989]}, "properties": {"grid_id": 83}}, {"type": "Feature", "geometry": {"type": "Point", "coordinates": [91.88361, 24.90011]}, "properties": {"grid_id": 84}}, {"type": "Feature", "geometry": {"type": "Point", "coordinates": [91.91331, 24.90033]}, "properties": {"grid_id": 85}}, {"type": "Feature", "geometry": {"type": "Point", "coordinates": [90.63716, 24.8585]}, "properties": {"grid_id": 86}}, {"type": "Feature", "geometry": {"type": "Point", "coordinates": [90.66683, 24.85897]}, "properties": {"grid_id": 87}}, {"type": "Feature", "geometry": {"type": "Point", "coordinates": [90.96358, 24.86331]}, "properties": {"grid_id": 88}}, {"type": "Feature", "geometry": {"type": "Point", "coordinates": [91.05261, 24.8645]}, "properties": {"grid_id": 89}}, {"type": "Feature", "geometry": {"type": "Point", "coordinates": [91.4385, 24.86903]}, "properties": {"grid_id": 90}}, {"type": "Feature", "geometry": {"type": "Point", "coordinates": [91.55725, 24.87023]}, "properties": {"grid_id": 91}}, {"type": "Feature", "geometry": {"type": "Point", "coordinates": [91.82447, 24.87257]}, "properties": {"grid_id": 92}}, {"type": "Feature", "geometry": {"type": "Point", "coordinates": [91.85416, 24.8728]}, "properties": {"grid_id": 93}}, {"type": "Feature", "geometry": {"type": "Point", "coordinates": [91.88385, 24.87302]}, "properties": {"grid_id": 94}}, {"type": "Feature", "geometry": {"type": "Point", "coordinates": [91.91355, 24.87324]}, "properties": {"grid_id": 95}}, {"type": "Feature", "geometry": {"type": "Point", "coordinates": [90.81567, 24.83414]}, "properties": {"grid_id": 96}}, {"type": "Feature", "geometry": {"type": "Point", "coordinates": [91.46852, 24.84225]}, "properties": {"grid_id": 97}}, {"type": "Feature", "geometry": {"type": "Point", "coordinates": [91.61693, 24.8437]}, "properties": {"grid_id": 98}}, {"type": "Feature", "geometry": {"type": "Point", "coordinates": [91.76535, 24.845]}, "properties": {"grid_id": 99}}, {"type": "Feature", "geometry": {"type": "Point", "coordinates": [91.85441, 24.84571]}, "properties": {"grid_id": 100}}, {"type": "Feature", "geometry": {"type": "Point", "coordinates": [91.8841, 24.84594]}, "properties": {"grid_id": 101}}, {"type": "Feature", "geometry": {"type": "Point", "coordinates": [91.91379, 24.84615]}, "properties": {"grid_id": 102}}, {"type": "Feature", "geometry": {"type": "Point", "coordinates": [91.94347, 24.84637]}, "properties": {"grid_id": 103}}, {"type": "Feature", "geometry": {"type": "Point", "coordinates": [91.97316, 24.84657]}, "properties": {"grid_id": 104}}, {"type": "Feature", "geometry": {"type": "Point", "coordinates": [90.6975, 24.80528]}, "properties": {"grid_id": 105}}, {"type": "Feature", "geometry": {"type": "Point", "coordinates": [90.75682, 24.80618]}, "properties": {"grid_id": 106}}, {"type": "Feature", "geometry": {"type": "Point", "coordinates": [90.78648, 24.80663]}, "properties": {"grid_id": 107}}, {"type": "Feature", "geometry": {"type": "Point", "coordinates": [91.32049, 24.81358]}, "properties": {"grid_id": 108}}, {"type": "Feature", "geometry": {"type": "Point", "coordinates": [91.35016, 24.81391]}, "properties": {"grid_id": 109}}, {"type": "Feature", "geometry": {"type": "Point", "coordinates": [91.76562, 24.81791]}, "properties": {"grid_id": 110}}, {"type": "Feature", "geometry": {"type": "Point", "coordinates": [91.82498, 24.81839]}, "properties": {"grid_id": 111}}, {"type": "Feature", "geometry": {"type": "Point", "coordinates": [91.85466, 24.81862]}, "properties": {"grid_id": 112}}, {"type": "Feature", "geometry": {"type": "Point", "coordinates": [91.88434, 24.81885]}, "properties": {"grid_id": 113}}, {"type": "Feature", "geometry": {"type": "Point", "coordinates": [91.91402, 24.81907]}, "properties": {"grid_id": 114}}, {"type": "Feature", "geometry": {"type": "Point", "coordinates": [91.97338, 24.81948]}, "properties": {"grid_id": 115}}, {"type": "Feature", "geometry": {"type": "Point", "coordinates": [91.05388, 24.78326]}, "properties": {"grid_id": 116}}, {"type": "Feature", "geometry": {"type": "Point", "coordinates": [91.35052, 24.78682]}, "properties": {"grid_id": 117}}, {"type": "Feature", "geometry": {"type": "Point", "coordinates": [91.58786, 24.78925]}, "properties": {"grid_id": 118}}, {"type": "Feature", "geometry": {"type": "Point", "coordinates": [91.73622, 24.79058]}, "properties": {"grid_id": 119}}, {"type": "Feature", "geometry": {"type": "Point", "coordinates": [91.76589, 24.79083]}, "properties": {"grid_id": 120}}, {"type": "Feature", "geometry": {"type": "Point", "coordinates": [91.82524, 24.7913]}, "properties": {"grid_id": 121}}, {"type": "Feature", "geometry": {"type": "Point", "coordinates": [91.85491, 24.79153]}, "properties": {"grid_id": 122}}, {"type": "Feature", "geometry": {"type": "Point", "coordinates": [91.88458, 24.79176]}, "properties": {"grid_id": 123}}, {"type": "Feature", "geometry": {"type": "Point", "coordinates": [91.91426, 24.79198]}, "properties": {"grid_id": 124}}, {"type": "Feature", "geometry": {"type": "Point", "coordinates": [91.94393, 24.79219]}, "properties": {"grid_id": 125}}, {"type": "Feature", "geometry": {"type": "Point", "coordinates": [90.60957, 24.74975]}, "properties": {"grid_id": 126}}, {"type": "Feature", "geometry": {"type": "Point", "coordinates": [90.63921, 24.75022]}, "properties": {"grid_id": 127}}, {"type": "Feature", "geometry": {"type": "Point", "coordinates": [90.66886, 24.75068]}, "properties": {"grid_id": 128}}, {"type": "Feature", "geometry": {"type": "Point", "coordinates": [91.08396, 24.75657]}, "properties": {"grid_id": 129}}, {"type": "Feature", "geometry": {"type": "Point", "coordinates": [91.58817, 24.76217]}, "properties": {"grid_id": 130}}, {"type": "Feature", "geometry": {"type": "Point", "coordinates": [91.6475, 24.76271]}, "properties": {"grid_id": 131}}, {"type": "Feature", "geometry": {"type": "Point", "coordinates": [91.70683, 24.76324]}, "properties": {"grid_id": 132}}, {"type": "Feature", "geometry": {"type": "Point", "coordinates": [91.73649, 24.76349]}, "properties": {"grid_id": 133}}, {"type": "Feature", "geometry": {"type": "Point", "coordinates": [91.91449, 24.76489]}, "properties": {"grid_id": 134}}, {"type": "Feature", "geometry": {"type": "Point", "coordinates": [91.94416, 24.7651]}, "properties": {"grid_id": 135}}, {"type": "Feature", "geometry": {"type": "Point", "coordinates": [90.63972, 24.72314]}, "properties": {"grid_id": 136}}, {"type": "Feature", "geometry": {"type": "Point", "coordinates": [90.66936, 24.72361]}, "properties": {"grid_id": 137}}, {"type": "Feature", "geometry": {"type": "Point", "coordinates": [90.87685, 24.72669]}, "properties": {"grid_id": 138}}, {"type": "Feature", "geometry": {"type": "Point", "coordinates": [90.9065, 24.72711]}, "properties": {"grid_id": 139}}, {"type": "Feature", "geometry": {"type": "Point", "coordinates": [91.4995, 24.73422]}, "properties": {"grid_id": 140}}, {"type": "Feature", "geometry": {"type": "Point", "coordinates": [91.76643, 24.73665]}, "properties": {"grid_id": 141}}, {"type": "Feature", "geometry": {"type": "Point", "coordinates": [91.79609, 24.73689]}, "properties": {"grid_id": 142}}, {"type": "Feature", "geometry": {"type": "Point", "coordinates": [91.08479, 24.70241]}, "properties": {"grid_id": 143}}, {"type": "Feature", "geometry": {"type": "Point", "coordinates": [91.73704, 24.70932]}, "properties": {"grid_id": 144}}, {"type": "Feature", "geometry": {"type": "Point", "coordinates": [90.64074, 24.669]}, "properties": {"grid_id": 145}}, {"type": "Feature", "geometry": {"type": "Point", "coordinates": [90.75925, 24.67082]}, "properties": {"grid_id": 146}}, {"type": "Feature", "geometry": {"type": "Point", "coordinates": [91.02593, 24.67456]}, "properties": {"grid_id": 147}}, {"type": "Feature", "geometry": {"type": "Point", "coordinates": [91.05557, 24.67495]}, "properties": {"grid_id": 148}}, {"type": "Feature", "geometry": {"type": "Point", "coordinates": [91.20375, 24.67679]}, "properties": {"grid_id": 149}}, {"type": "Feature", "geometry": {"type": "Point", "coordinates": [91.35194, 24.67849]}, "properties": {"grid_id": 150}}, {"type": "Feature", "geometry": {"type": "Point", "coordinates": [91.58908, 24.68091]}, "properties": {"grid_id": 151}}, {"type": "Feature", "geometry": {"type": "Point", "coordinates": [91.61873, 24.68118]}, "properties": {"grid_id": 152}}, {"type": "Feature", "geometry": {"type": "Point", "coordinates": [91.64837, 24.68145]}, "properties": {"grid_id": 153}}, {"type": "Feature", "geometry": {"type": "Point", "coordinates": [90.61163, 24.64146]}, "properties": {"grid_id": 154}}, {"type": "Feature", "geometry": {"type": "Point", "coordinates": [91.32267, 24.65108]}, "properties": {"grid_id": 155}}, {"type": "Feature", "geometry": {"type": "Point", "coordinates": [91.61903, 24.6541]}, "properties": {"grid_id": 156}}, {"type": "Feature", "geometry": {"type": "Point", "coordinates": [91.73758, 24.65514]}, "properties": {"grid_id": 157}}, {"type": "Feature", "geometry": {"type": "Point", "coordinates": [91.82651, 24.65586]}, "properties": {"grid_id": 158}}, {"type": "Feature", "geometry": {"type": "Point", "coordinates": [91.94507, 24.65674]}, "properties": {"grid_id": 159}}, {"type": "Feature", "geometry": {"type": "Point", "coordinates": [91.11565, 24.62154]}, "properties": {"grid_id": 160}}, {"type": "Feature", "geometry": {"type": "Point", "coordinates": [91.67859, 24.62754]}, "properties": {"grid_id": 161}}, {"type": "Feature", "geometry": {"type": "Point", "coordinates": [91.82676, 24.62877]}, "properties": {"grid_id": 162}}, {"type": "Feature", "geometry": {"type": "Point", "coordinates": [91.8564, 24.629]}, "properties": {"grid_id": 163}}, {"type": "Feature", "geometry": {"type": "Point", "coordinates": [91.91567, 24.62944]}, "properties": {"grid_id": 164}}, {"type": "Feature", "geometry": {"type": "Point", "coordinates": [90.61266, 24.58732]}, "properties": {"grid_id": 165}}, {"type": "Feature", "geometry": {"type": "Point", "coordinates": [90.84953, 24.59089]}, "properties": {"grid_id": 166}}, {"type": "Feature", "geometry": {"type": "Point", "coordinates": [90.90875, 24.59173]}, "properties": {"grid_id": 167}}, {"type": "Feature", "geometry": {"type": "Point", "coordinates": [90.93837, 24.59213]}, "properties": {"grid_id": 168}}, {"type": "Feature", "geometry": {"type": "Point", "coordinates": [90.96798, 24.59254]}, "properties": {"grid_id": 169}}, {"type": "Feature", "geometry": {"type": "Point", "coordinates": [91.50112, 24.59879]}, "properties": {"grid_id": 170}}, {"type": "Feature", "geometry": {"type": "Point", "coordinates": [91.61962, 24.59992]}, "properties": {"grid_id": 171}}, {"type": "Feature", "geometry": {"type": "Point", "coordinates": [91.85664, 24.60191]}, "properties": {"grid_id": 172}}, {"type": "Feature", "geometry": {"type": "Point", "coordinates": [90.61318, 24.56025]}, "properties": {"grid_id": 173}}, {"type": "Feature", "geometry": {"type": "Point", "coordinates": [90.64278, 24.56072]}, "properties": {"grid_id": 174}}, {"type": "Feature", "geometry": {"type": "Point", "coordinates": [90.84999, 24.56382]}, "properties": {"grid_id": 175}}, {"type": "Feature", "geometry": {"type": "Point", "coordinates": [91.23491, 24.56882]}, "properties": {"grid_id": 176}}, {"type": "Feature", "geometry": {"type": "Point", "coordinates": [91.61992, 24.57284]}, "properties": {"grid_id": 177}}, {"type": "Feature", "geometry": {"type": "Point", "coordinates": [91.64954, 24.57311]}, "properties": {"grid_id": 178}}, {"type": "Feature", "geometry": {"type": "Point", "coordinates": [91.97538, 24.57567]}, "properties": {"grid_id": 179}}, {"type": "Feature", "geometry": {"type": "Point", "coordinates": [90.79126, 24.53588]}, "properties": {"grid_id": 180}}, {"type": "Feature", "geometry": {"type": "Point", "coordinates": [90.99845, 24.53878]}, "properties": {"grid_id": 181}}, {"type": "Feature", "geometry": {"type": "Point", "coordinates": [91.5906, 24.54548]}, "properties": {"grid_id": 182}}, {"type": "Feature", "geometry": {"type": "Point", "coordinates": [91.70906, 24.54654]}, "properties": {"grid_id": 183}}, {"type": "Feature", "geometry": {"type": "Point", "coordinates": [91.76829, 24.54703]}, "properties": {"grid_id": 184}}, {"type": "Feature", "geometry": {"type": "Point", "coordinates": [91.82752, 24.54751]}, "properties": {"grid_id": 185}}, {"type": "Feature", "geometry": {"type": "Point", "coordinates": [91.88675, 24.54795]}, "properties": {"grid_id": 186}}, {"type": "Feature", "geometry": {"type": "Point", "coordinates": [91.91637, 24.54817]}, "properties": {"grid_id": 187}}, {"type": "Feature", "geometry": {"type": "Point", "coordinates": [90.67337, 24.50703]}, "properties": {"grid_id": 188}}, {"type": "Feature", "geometry": {"type": "Point", "coordinates": [90.70296, 24.50748]}, "properties": {"grid_id": 189}}, {"type": "Feature", "geometry": {"type": "Point", "coordinates": [90.82132, 24.50924]}, "properties": {"grid_id": 190}}, {"type": "Feature", "geometry": {"type": "Point", "coordinates": [91.14687, 24.51359]}, "properties": {"grid_id": 191}}, {"type": "Feature", "geometry": {"type": "Point", "coordinates": [91.85738, 24.52064]}, "properties": {"grid_id": 192}}, {"type": "Feature", "geometry": {"type": "Point", "coordinates": [91.88699, 24.52086]}, "properties": {"grid_id": 193}}, {"type": "Feature", "geometry": {"type": "Point", "coordinates": [90.61471, 24.47904]}, "properties": {"grid_id": 194}}, {"type": "Feature", "geometry": {"type": "Point", "coordinates": [90.76262, 24.4813]}, "properties": {"grid_id": 195}}, {"type": "Feature", "geometry": {"type": "Point", "coordinates": [90.88096, 24.48301]}, "properties": {"grid_id": 196}}, {"type": "Feature", "geometry": {"type": "Point", "coordinates": [90.91055, 24.48342]}, "properties": {"grid_id": 197}}, {"type": "Feature", "geometry": {"type": "Point", "coordinates": [90.94014, 24.48383]}, "properties": {"grid_id": 198}}, {"type": "Feature", "geometry": {"type": "Point", "coordinates": [90.99931, 24.48462]}, "properties": {"grid_id": 199}}, {"type": "Feature", "geometry": {"type": "Point", "coordinates": [91.68001, 24.49211]}, "properties": {"grid_id": 200}}, {"type": "Feature", "geometry": {"type": "Point", "coordinates": [91.73921, 24.49261]}, "properties": {"grid_id": 201}}, {"type": "Feature", "geometry": {"type": "Point", "coordinates": [91.76881, 24.49286]}, "properties": {"grid_id": 202}}, {"type": "Feature", "geometry": {"type": "Point", "coordinates": [91.82802, 24.49333]}, "properties": {"grid_id": 203}}, {"type": "Feature", "geometry": {"type": "Point", "coordinates": [91.91683, 24.49399]}, "properties": {"grid_id": 204}}, {"type": "Feature", "geometry": {"type": "Point", "coordinates": [91.97604, 24.4944]}, "properties": {"grid_id": 205}}, {"type": "Feature", "geometry": {"type": "Point", "coordinates": [90.6448, 24.45243]}, "properties": {"grid_id": 206}}, {"type": "Feature", "geometry": {"type": "Point", "coordinates": [90.67437, 24.45289]}, "properties": {"grid_id": 207}}, {"type": "Feature", "geometry": {"type": "Point", "coordinates": [90.70395, 24.45334]}, "properties": {"grid_id": 208}}, {"type": "Feature", "geometry": {"type": "Point", "coordinates": [90.73352, 24.45378]}, "properties": {"grid_id": 209}}, {"type": "Feature", "geometry": {"type": "Point", "coordinates": [90.7631, 24.45422]}, "properties": {"grid_id": 210}}, {"type": "Feature", "geometry": {"type": "Point", "coordinates": [90.79268, 24.45466]}, "properties": {"grid_id": 211}}, {"type": "Feature", "geometry": {"type": "Point", "coordinates": [90.88141, 24.45593]}, "properties": {"grid_id": 212}}, {"type": "Feature", "geometry": {"type": "Point", "coordinates": [90.911, 24.45634]}, "properties": {"grid_id": 213}}, {"type": "Feature", "geometry": {"type": "Point", "coordinates": [91.05891, 24.45831]}, "properties": {"grid_id": 214}}, {"type": "Feature", "geometry": {"type": "Point", "coordinates": [91.35478, 24.46182]}, "properties": {"grid_id": 215}}, {"type": "Feature", "geometry": {"type": "Point", "coordinates": [91.73948, 24.46552]}, "properties": {"grid_id": 216}}, {"type": "Feature", "geometry": {"type": "Point", "coordinates": [91.76908, 24.46577]}, "properties": {"grid_id": 217}}, {"type": "Feature", "geometry": {"type": "Point", "coordinates": [91.88747, 24.46668]}, "properties": {"grid_id": 218}}, {"type": "Feature", "geometry": {"type": "Point", "coordinates": [91.91706, 24.4669]}, "properties": {"grid_id": 219}}, {"type": "Feature", "geometry": {"type": "Point", "coordinates": [91.97626, 24.46731]}, "properties": {"grid_id": 220}}, {"type": "Feature", "geometry": {"type": "Point", "coordinates": [90.61573, 24.42489]}, "properties": {"grid_id": 221}}, {"type": "Feature", "geometry": {"type": "Point", "coordinates": [90.6453, 24.42536]}, "properties": {"grid_id": 222}}, {"type": "Feature", "geometry": {"type": "Point", "coordinates": [90.67487, 24.42581]}, "properties": {"grid_id": 223}}, {"type": "Feature", "geometry": {"type": "Point", "coordinates": [90.73401, 24.42671]}, "properties": {"grid_id": 224}}, {"type": "Feature", "geometry": {"type": "Point", "coordinates": [90.79315, 24.42758]}, "properties": {"grid_id": 225}}, {"type": "Feature", "geometry": {"type": "Point", "coordinates": [90.82272, 24.42801]}, "properties": {"grid_id": 226}}, {"type": "Feature", "geometry": {"type": "Point", "coordinates": [90.85229, 24.42844]}, "properties": {"grid_id": 227}}, {"type": "Feature", "geometry": {"type": "Point", "coordinates": [91.20722, 24.43306]}, "properties": {"grid_id": 228}}, {"type": "Feature", "geometry": {"type": "Point", "coordinates": [91.38471, 24.43506]}, "properties": {"grid_id": 229}}, {"type": "Feature", "geometry": {"type": "Point", "coordinates": [91.44388, 24.43568]}, "properties": {"grid_id": 230}}, {"type": "Feature", "geometry": {"type": "Point", "coordinates": [90.70493, 24.39919]}, "properties": {"grid_id": 231}}, {"type": "Feature", "geometry": {"type": "Point", "coordinates": [90.73449, 24.39964]}, "properties": {"grid_id": 232}}, {"type": "Feature", "geometry": {"type": "Point", "coordinates": [90.76405, 24.40008]}, "properties": {"grid_id": 233}}, {"type": "Feature", "geometry": {"type": "Point", "coordinates": [90.79362, 24.40051]}, "properties": {"grid_id": 234}}, {"type": "Feature", "geometry": {"type": "Point", "coordinates": [90.94146, 24.40259]}, "properties": {"grid_id": 235}}, {"type": "Feature", "geometry": {"type": "Point", "coordinates": [90.6463, 24.37121]}, "properties": {"grid_id": 236}}, {"type": "Feature", "geometry": {"type": "Point", "coordinates": [90.70542, 24.37212]}, "properties": {"grid_id": 237}}, {"type": "Feature", "geometry": {"type": "Point", "coordinates": [90.79409, 24.37343]}, "properties": {"grid_id": 238}}, {"type": "Feature", "geometry": {"type": "Point", "coordinates": [90.82365, 24.37386]}, "properties": {"grid_id": 239}}, {"type": "Feature", "geometry": {"type": "Point", "coordinates": [90.94189, 24.37551]}, "properties": {"grid_id": 240}}, {"type": "Feature", "geometry": {"type": "Point", "coordinates": [91.23755, 24.37924]}, "properties": {"grid_id": 241}}, {"type": "Feature", "geometry": {"type": "Point", "coordinates": [91.41497, 24.3812]}, "properties": {"grid_id": 242}}, {"type": "Feature", "geometry": {"type": "Point", "coordinates": [91.56284, 24.38268]}, "properties": {"grid_id": 243}}, {"type": "Feature", "geometry": {"type": "Point", "coordinates": [91.74029, 24.38426]}, "properties": {"grid_id": 244}}, {"type": "Feature", "geometry": {"type": "Point", "coordinates": [91.82902, 24.38497]}, "properties": {"grid_id": 245}}, {"type": "Feature", "geometry": {"type": "Point", "coordinates": [91.94734, 24.38584]}, "properties": {"grid_id": 246}}, {"type": "Feature", "geometry": {"type": "Point", "coordinates": [90.61725, 24.34368]}, "properties": {"grid_id": 247}}, {"type": "Feature", "geometry": {"type": "Point", "coordinates": [90.7059, 24.34504]}, "properties": {"grid_id": 248}}, {"type": "Feature", "geometry": {"type": "Point", "coordinates": [90.76501, 24.34593]}, "properties": {"grid_id": 249}}, {"type": "Feature", "geometry": {"type": "Point", "coordinates": [90.79456, 24.34636]}, "properties": {"grid_id": 250}}, {"type": "Feature", "geometry": {"type": "Point", "coordinates": [90.82411, 24.34679]}, "properties": {"grid_id": 251}}, {"type": "Feature", "geometry": {"type": "Point", "coordinates": [91.20836, 24.35181]}, "properties": {"grid_id": 252}}, {"type": "Feature", "geometry": {"type": "Point", "coordinates": [91.97713, 24.35895]}, "properties": {"grid_id": 253}}, {"type": "Feature", "geometry": {"type": "Point", "coordinates": [90.67685, 24.31752]}, "properties": {"grid_id": 254}}, {"type": "Feature", "geometry": {"type": "Point", "coordinates": [90.82458, 24.31971]}, "properties": {"grid_id": 255}}, {"type": "Feature", "geometry": {"type": "Point", "coordinates": [91.32697, 24.32608]}, "properties": {"grid_id": 256}}, {"type": "Feature", "geometry": {"type": "Point", "coordinates": [91.35653, 24.3264]}, "properties": {"grid_id": 257}}, {"type": "Feature", "geometry": {"type": "Point", "coordinates": [91.44521, 24.32734]}, "properties": {"grid_id": 258}}, {"type": "Feature", "geometry": {"type": "Point", "coordinates": [91.47477, 24.32764]}, "properties": {"grid_id": 259}}, {"type": "Feature", "geometry": {"type": "Point", "coordinates": [91.50433, 24.32793]}, "properties": {"grid_id": 260}}, {"type": "Feature", "geometry": {"type": "Point", "coordinates": [91.74083, 24.33008]}, "properties": {"grid_id": 261}}, {"type": "Feature", "geometry": {"type": "Point", "coordinates": [91.97735, 24.33186]}, "properties": {"grid_id": 262}}, {"type": "Feature", "geometry": {"type": "Point", "coordinates": [90.76596, 24.29178]}, "properties": {"grid_id": 263}}, {"type": "Feature", "geometry": {"type": "Point", "coordinates": [90.7955, 24.29221]}, "properties": {"grid_id": 264}}, {"type": "Feature", "geometry": {"type": "Point", "coordinates": [90.85458, 24.29305]}, "properties": {"grid_id": 265}}, {"type": "Feature", "geometry": {"type": "Point", "coordinates": [91.26823, 24.29833]}, "properties": {"grid_id": 266}}, {"type": "Feature", "geometry": {"type": "Point", "coordinates": [91.29778, 24.29867]}, "properties": {"grid_id": 267}}, {"type": "Feature", "geometry": {"type": "Point", "coordinates": [91.35688, 24.29932]}, "properties": {"grid_id": 268}}, {"type": "Feature", "geometry": {"type": "Point", "coordinates": [91.50464, 24.30085]}, "properties": {"grid_id": 269}}, {"type": "Feature", "geometry": {"type": "Point", "coordinates": [91.5342, 24.30113]}, "properties": {"grid_id": 270}}, {"type": "Feature", "geometry": {"type": "Point", "coordinates": [91.65242, 24.30223]}, "properties": {"grid_id": 271}}, {"type": "Feature", "geometry": {"type": "Point", "coordinates": [91.68198, 24.30249]}, "properties": {"grid_id": 272}}, {"type": "Feature", "geometry": {"type": "Point", "coordinates": [91.71154, 24.30274]}, "properties": {"grid_id": 273}}, {"type": "Feature", "geometry": {"type": "Point", "coordinates": [91.74109, 24.30299]}, "properties": {"grid_id": 274}}, {"type": "Feature", "geometry": {"type": "Point", "coordinates": [91.82977, 24.3037]}, "properties": {"grid_id": 275}}, {"type": "Feature", "geometry": {"type": "Point", "coordinates": [90.61877, 24.26246]}, "properties": {"grid_id": 276}}, {"type": "Feature", "geometry": {"type": "Point", "coordinates": [90.8255, 24.26556]}, "properties": {"grid_id": 277}}, {"type": "Feature", "geometry": {"type": "Point", "coordinates": [91.09134, 24.26913]}, "properties": {"grid_id": 278}}, {"type": "Feature", "geometry": {"type": "Point", "coordinates": [91.23905, 24.27091]}, "properties": {"grid_id": 279}}, {"type": "Feature", "geometry": {"type": "Point", "coordinates": [91.26859, 24.27125]}, "properties": {"grid_id": 280}}, {"type": "Feature", "geometry": {"type": "Point", "coordinates": [91.35723, 24.27223]}, "properties": {"grid_id": 281}}, {"type": "Feature", "geometry": {"type": "Point", "coordinates": [91.38677, 24.27255]}, "properties": {"grid_id": 282}}, {"type": "Feature", "geometry": {"type": "Point", "coordinates": [90.61928, 24.23539]}, "properties": {"grid_id": 283}}, {"type": "Feature", "geometry": {"type": "Point", "coordinates": [90.6488, 24.23585]}, "properties": {"grid_id": 284}}, {"type": "Feature", "geometry": {"type": "Point", "coordinates": [90.67832, 24.2363]}, "properties": {"grid_id": 285}}, {"type": "Feature", "geometry": {"type": "Point", "coordinates": [90.73738, 24.23719]}, "properties": {"grid_id": 286}}, {"type": "Feature", "geometry": {"type": "Point", "coordinates": [90.79643, 24.23806]}, "properties": {"grid_id": 287}}, {"type": "Feature", "geometry": {"type": "Point", "coordinates": [90.82596, 24.23848]}, "properties": {"grid_id": 288}}, {"type": "Feature", "geometry": {"type": "Point", "coordinates": [90.85549, 24.2389]}, "properties": {"grid_id": 289}}, {"type": "Feature", "geometry": {"type": "Point", "coordinates": [91.23942, 24.24383]}, "properties": {"grid_id": 290}}, {"type": "Feature", "geometry": {"type": "Point", "coordinates": [91.32804, 24.24483]}, "properties": {"grid_id": 291}}, {"type": "Feature", "geometry": {"type": "Point", "coordinates": [91.35758, 24.24515]}, "properties": {"grid_id": 292}}, {"type": "Feature", "geometry": {"type": "Point", "coordinates": [91.38712, 24.24547]}, "properties": {"grid_id": 293}}, {"type": "Feature", "geometry": {"type": "Point", "coordinates": [90.67882, 24.20923]}, "properties": {"grid_id": 294}}, {"type": "Feature", "geometry": {"type": "Point", "coordinates": [90.85594, 24.21182]}, "properties": {"grid_id": 295}}, {"type": "Feature", "geometry": {"type": "Point", "coordinates": [90.88547, 24.21224]}, "properties": {"grid_id": 296}}, {"type": "Feature", "geometry": {"type": "Point", "coordinates": [90.94451, 24.21304]}, "properties": {"grid_id": 297}}, {"type": "Feature", "geometry": {"type": "Point", "coordinates": [90.97404, 24.21344]}, "properties": {"grid_id": 298}}, {"type": "Feature", "geometry": {"type": "Point", "coordinates": [91.74189, 24.22172]}, "properties": {"grid_id": 299}}, {"type": "Feature", "geometry": {"type": "Point", "coordinates": [91.83051, 24.22243]}, "properties": {"grid_id": 300}}, {"type": "Feature", "geometry": {"type": "Point", "coordinates": [90.64979, 24.1817]}, "properties": {"grid_id": 301}}, {"type": "Feature", "geometry": {"type": "Point", "coordinates": [90.67931, 24.18215]}, "properties": {"grid_id": 302}}, {"type": "Feature", "geometry": {"type": "Point", "coordinates": [90.94495, 24.18597]}, "properties": {"grid_id": 303}}, {"type": "Feature", "geometry": {"type": "Point", "coordinates": [91.06303, 24.18751]}, "properties": {"grid_id": 304}}, {"type": "Feature", "geometry": {"type": "Point", "coordinates": [91.12207, 24.18825]}, "properties": {"grid_id": 305}}, {"type": "Feature", "geometry": {"type": "Point", "coordinates": [91.29922, 24.19033]}, "properties": {"grid_id": 306}}, {"type": "Feature", "geometry": {"type": "Point", "coordinates": [90.65029, 24.15463]}, "properties": {"grid_id": 307}}, {"type": "Feature", "geometry": {"type": "Point", "coordinates": [90.82734, 24.15725]}, "properties": {"grid_id": 308}}, {"type": "Feature", "geometry": {"type": "Point", "coordinates": [90.91587, 24.15849]}, "properties": {"grid_id": 309}}, {"type": "Feature", "geometry": {"type": "Point", "coordinates": [91.15199, 24.16153]}, "properties": {"grid_id": 310}}, {"type": "Feature", "geometry": {"type": "Point", "coordinates": [91.27006, 24.16292]}, "properties": {"grid_id": 311}}, {"type": "Feature", "geometry": {"type": "Point", "coordinates": [90.65078, 24.12755]}, "properties": {"grid_id": 312}}, {"type": "Feature", "geometry": {"type": "Point", "coordinates": [90.76879, 24.12932]}, "properties": {"grid_id": 313}}, {"type": "Feature", "geometry": {"type": "Point", "coordinates": [90.82779, 24.13017]}, "properties": {"grid_id": 314}}, {"type": "Feature", "geometry": {"type": "Point", "coordinates": [90.8573, 24.13059]}, "properties": {"grid_id": 315}}, {"type": "Feature", "geometry": {"type": "Point", "coordinates": [91.2114, 24.13515]}, "properties": {"grid_id": 316}}, {"type": "Feature", "geometry": {"type": "Point", "coordinates": [91.32945, 24.13649]}, "properties": {"grid_id": 317}}, {"type": "Feature", "geometry": {"type": "Point", "coordinates": [90.62179, 24.10002]}, "properties": {"grid_id": 318}}, {"type": "Feature", "geometry": {"type": "Point", "coordinates": [90.65128, 24.10048]}, "properties": {"grid_id": 319}}, {"type": "Feature", "geometry": {"type": "Point", "coordinates": [90.68077, 24.10093]}, "properties": {"grid_id": 320}}, {"type": "Feature", "geometry": {"type": "Point", "coordinates": [90.82825, 24.1031]}, "properties": {"grid_id": 321}}, {"type": "Feature", "geometry": {"type": "Point", "coordinates": [90.88725, 24.10392]}, "properties": {"grid_id": 322}}, {"type": "Feature", "geometry": {"type": "Point", "coordinates": [90.94625, 24.10473]}, "properties": {"grid_id": 323}}, {"type": "Feature", "geometry": {"type": "Point", "coordinates": [91.00525, 24.10551]}, "properties": {"grid_id": 324}}, {"type": "Feature", "geometry": {"type": "Point", "coordinates": [91.12326, 24.10701]}, "properties": {"grid_id": 325}}, {"type": "Feature", "geometry": {"type": "Point", "coordinates": [91.27079, 24.10875]}, "properties": {"grid_id": 326}}, {"type": "Feature", "geometry": {"type": "Point", "coordinates": [91.53637, 24.11152]}, "properties": {"grid_id": 327}}, {"type": "Feature", "geometry": {"type": "Point", "coordinates": [90.62229, 24.07295]}, "properties": {"grid_id": 328}}, {"type": "Feature", "geometry": {"type": "Point", "coordinates": [90.65177, 24.07341]}, "properties": {"grid_id": 329}}, {"type": "Feature", "geometry": {"type": "Point", "coordinates": [90.68126, 24.07386]}, "properties": {"grid_id": 330}}, {"type": "Feature", "geometry": {"type": "Point", "coordinates": [90.74024, 24.07474]}, "properties": {"grid_id": 331}}, {"type": "Feature", "geometry": {"type": "Point", "coordinates": [90.82871, 24.07602]}, "properties": {"grid_id": 332}}, {"type": "Feature", "geometry": {"type": "Point", "coordinates": [90.94668, 24.07765]}, "properties": {"grid_id": 333}}, {"type": "Feature", "geometry": {"type": "Point", "coordinates": [91.06466, 24.07919]}, "properties": {"grid_id": 334}}, {"type": "Feature", "geometry": {"type": "Point", "coordinates": [91.09416, 24.07956]}, "properties": {"grid_id": 335}}]}
