{
 "type": "FeatureCollection",
 "features": [
  {
   "type": "Feature",
   "properties": {
    "osm_type": "way",
    "osm_id": 539203370,
    "amenity": "hospital",
    "healthcare": "hospital",
    "name": "koitok hospital"
   },
   "geometry": {
    "type": "Point",
    "coordinates": [
     91.5658573,
     24.9284426
    ]
   }
  },
  {
   "type": "Feature",
   "properties": {
    "osm_type": "way",
    "osm_id": 539361524,
    "amenity": "hospital",
    "healthcare": "hospital"
   },
   "geometry": {
    "type": "Point",
    "coordinates": [
     91.3971794,
     24.9451998
    ]
   }
  },
  {
   "type": "Feature",
   "properties": {
    "osm_type": "way",
    "osm_id": 795286625,
    "amenity": "hospital",
    "name": "Dighalbak Union Family Clinic & Health Center"
   },
   "geometry": {
    "type": "Point",
    "coordinates": [
     91.6148309,
     24.6351837
    ]
   }
  },
  {
   "type": "Feature",
   "properties": {
    "osm_type": "way",
    "osm_id": 1075303043,
    "amenity": "hospital",
    "healthcare": "hospital",
    "name": "Bishwamvarpur Upazila Health Complex",
    "operator": "Upazila Health"
   },
   "geometry": {
    "type": "Point",
    "coordinates": [
     91.3034775,
     25.1015364
    ]
   }
  },
  {
   "type": "Feature",
   "properties": {
    "osm_type": "way",
    "osm_id": 1075303059,
    "amenity": "hospital",
    "healthcare": "hospital",
    "name": "Bishwamvpur Upazila Health Complex"
   },
   "geometry": {
    "type": "Point",
    "coordinates": [
     91.3035204,
     25.1014827
    ]
   }
  },
  {
   "type": "Feature",
   "properties": {
    "osm_type": "node",
    "osm_id": 2332856859,
    "amenity": "hospital",
    "healthcare": "hospital"
   },
   "geometry": {
    "type": "Point",
    "coordinates": [
     91.3039972,
     25.1014026
    ]
   }
  },
  {
   "type": "Feature",
   "properties": {
    "osm_type": "node",
    "osm_id": 2332856879,
    "amenity": "hospital",
    "healthcare": "hospital",
    "name": "Dowarbazar Upazila Health Complex"
   },
   "geometry": {
    "type": "Point",
    "coordinates": [
     91.5678367,
     25.0429618
    ]
   }
  },
  {
   "type": "Feature",
   "properties": {
    "osm_type": "node",
    "osm_id": 2332856927,
    "amenity": "hospital",
    "name": "Sunamganj General Hospital"
   },
   "geometry": {
    "type": "Point",
    "coordinates": [
     91.410647,
     25.0651231
    ]
   }
  },
  {
   "type": "Feature",
   "properties": {
    "osm_type": "node",
    "osm_id": 2332856931,
    "amenity": "hospital",
    "name": "Tahirpur Upazila Health Complex"
   },
   "geometry": {
    "type": "Point",
    "coordinates": [
     91.1854831,
     25.0979172
    ]
   }
  },
  {
   "type": "Feature",
   "properties": {
    "osm_type": "node",
    "osm_id": 2332872329,
    "amenity": "hospital",
    "name": "বিশ্বনাথ উপজেলা স্বাস্থ্য কমপ্লেক্স",
    "name:bn": "বিশ্বনাথ উপজেলা স্বাস্থ্য কমপ্লেক্স"
   },
   "geometry": {
    "type": "Point",
    "coordinates": [
     91.7257035,
     24.8405595
    ]
   }
  },
  {
   "type": "Feature",
   "properties": {
    "osm_type": "node",
    "osm_id": 2332872337,
    "amenity": "hospital",
    "name": "Jagannathpur Upazila Health Complex"
   },
   "geometry": {
    "type": "Point",
    "coordinates": [
     91.5631588,
     24.7794347
    ]
   }
  },
  {
   "type": "Feature",
   "properties": {
    "osm_type": "node",
    "osm_id": 2332872344,
    "amenity": "hospital",
    "name": "Jamalganj Upazila Health Complex"
   },
   "geometry": {
    "type": "Point",
    "coordinates": [
     91.2356038,
     24.9987899
    ]
   }
  },
  {
   "type": "Feature",
   "properties": {
    "osm_type": "node",
    "osm_id": 2332872347,
    "amenity": "hospital",
    "name": "Mohanganj Upazila Health Complex"
   },
   "geometry": {
    "type": "Point",
    "coordinates": [
     90.9820953,
     24.8792089
    ]
   }
  },
  {
   "type": "Feature",
   "properties": {
    "osm_type": "node",
    "osm_id": 2332892994,
    "amenity": "hospital",
    "name": "Ajmiriganj Upazila Health Complex"
   },
   "geometry": {
    "type": "Point",
    "coordinates": [
     91.2355889,
     24.5515794
    ]
   }
  },
  {
   "type": "Feature",
   "properties": {
    "osm_type": "node",
    "osm_id": 2332892995,
    "amenity": "hospital",
    "name": "বানিয়াচং ঊপজেলা স্বাস্থ্য কমপ্লেক্স",
    "name:en": "Baniachang Upazila Health Complex"
   },
   "geometry": {
    "type": "Point",
    "coordinates": [
     91.363971,
     24.5043956
    ]
   }
  },
  {
   "type": "Feature",
   "properties": {
    "osm_type": "node",
    "osm_id": 2616255489,
    "amenity": "hospital",
    "name": "Khaled General Hospital"
   },
   "geometry": {
    "type": "Point",
    "coordinates": [
     91.4433542,
     24.9218234
    ]
   }
  },
  {
   "type": "Feature",
   "properties": {
    "osm_type": "node",
    "osm_id": 5619077147,
    "amenity": "hospital",
    "healthcare": "hospital",
    "name": "Nabiganj Upazila Health Complex",
    "name:bn": "নবীগঞ্জ উপজেলা স্বাস্থ্য কমপ্লেক্স"
   },
   "geometry": {
    "type": "Point",
    "coordinates": [
     91.5139364,
     24.5636261
    ]
   }
  },
  {
   "type": "Feature",
   "properties": {
    "osm_type": "node",
    "osm_id": 5781372419,
    "amenity": "clinic",
    "name": "Sastho Poribar Kollan Kendro"
   },
   "geometry": {
    "type": "Point",
    "coordinates": [
     91.2472996,
     25.1077659
    ]
   }
  },
  {
   "type": "Feature",
   "properties": {
    "osm_type": "node",
    "osm_id": 5781372420,
    "amenity": "clinic",
    "name": "Community Clinic Puran Varanga"
   },
   "geometry": {
    "type": "Point",
    "coordinates": [
     91.2512076,
     25.0951745
    ]
   }
  },
  {
   "type": "Feature",
   "properties": {
    "osm_type": "node",
    "osm_id": 5793761342,
    "amenity": "clinic",
    "name": "Kamarkandi Community Clinic"
   },
   "geometry": {
    "type": "Point",
    "coordinates": [
     91.1741209,
     25.1615076
    ]
   }
  },
  {
   "type": "Feature",
   "properties": {
    "osm_type": "node",
    "osm_id": 5866203323,
    "amenity": "hospital",
    "name": "Mithamoin Upazila Health Complex"
   },
   "geometry": {
    "type": "Point",
    "coordinates": [
     91.0541001,
     24.4156449
    ]
   }
  },
  {
   "type": "Feature",
   "properties": {
    "osm_type": "node",
    "osm_id": 6120359804,
    "amenity": "clinic",
    "name": "Uzangao community clinic"
   },
   "geometry": {
    "type": "Point",
    "coordinates": [
     91.1484414,
     24.435944
    ]
   }
  },
  {
   "type": "Feature",
   "properties": {
    "osm_type": "node",
    "osm_id": 6120359805,
    "amenity": "clinic",
    "name": "Mamudnagar Community clinic"
   },
   "geometry": {
    "type": "Point",
    "coordinates": [
     91.1404833,
     24.4141306
    ]
   }
  },
  {
   "type": "Feature",
   "properties": {
    "osm_type": "node",
    "osm_id": 6123345342,
    "amenity": "clinic",
    "name": "Loularchar Commuinity Clinic"
   },
   "geometry": {
    "type": "Point",
    "coordinates": [
     91.259973,
     24.7425587
    ]
   }
  },
  {
   "type": "Feature",
   "properties": {
    "osm_type": "node",
    "osm_id": 6123345366,
    "amenity": "clinic",
    "name": "Shamarchar commuinity Clinic"
   },
   "geometry": {
    "type": "Point",
    "coordinates": [
     91.2452853,
     24.7494645
    ]
   }
  },
  {
   "type": "Feature",
   "properties": {
    "osm_type": "node",
    "osm_id": 6123345380,
    "amenity": "clinic",
    "name": "Kartikpur Commuinity Clinic"
   },
   "geometry": {
    "type": "Point",
    "coordinates": [
     91.2589565,
     24.7459227
    ]
   }
  },
  {
   "type": "Feature",
   "properties": {
    "osm_type": "node",
    "osm_id": 6124467111,
    "amenity": "clinic",
    "name": "Sreepur Health Complex"
   },
   "geometry": {
    "type": "Point",
    "coordinates": [
     91.1337349,
     25.1558958
    ]
   }
  },
  {
   "type": "Feature",
   "properties": {
    "osm_type": "node",
    "osm_id": 6124500126,
    "amenity": "hospital",
    "name": "Vojendroganj up health and family welfare centre"
   },
   "geometry": {
    "type": "Point",
    "coordinates": [
     91.2311956,
     24.7475304
    ]
   }
  },
  {
   "type": "Feature",
   "properties": {
    "osm_type": "node",
    "osm_id": 6124500135,
    "amenity": "clinic",
    "name": "Uzanyarabad community clinic"
   },
   "geometry": {
    "type": "Point",
    "coordinates": [
     91.167013,
     24.7373919
    ]
   }
  },
  {
   "type": "Feature",
   "properties": {
    "osm_type": "node",
    "osm_id": 6124500144,
    "amenity": "clinic",
    "name": "Kashipur Community Clinic"
   },
   "geometry": {
    "type": "Point",
    "coordinates": [
     91.2118392,
     24.722412
    ]
   }
  },
  {
   "type": "Feature",
   "properties": {
    "osm_type": "node",
    "osm_id": 6124500161,
    "amenity": "clinic",
    "name": "Atgao community clinic"
   },
   "geometry": {
    "type": "Point",
    "coordinates": [
     91.1865637,
     24.751351
    ]
   }
  },
  {
   "type": "Feature",
   "properties": {
    "osm_type": "node",
    "osm_id": 6124500176,
    "amenity": "hospital",
    "name": "Union health and family welfare center"
   },
   "geometry": {
    "type": "Point",
    "coordinates": [
     91.1597778,
     24.7655022
    ]
   }
  },
  {
   "type": "Feature",
   "properties": {
    "osm_type": "node",
    "osm_id": 6125239779,
    "amenity": "clinic",
    "name": "Srihile community clinic"
   },
   "geometry": {
    "type": "Point",
    "coordinates": [
     91.2113258,
     24.5887635
    ]
   }
  },
  {
   "type": "Feature",
   "properties": {
    "osm_type": "node",
    "osm_id": 6125242925,
    "amenity": "clinic",
    "name": "Adittopur community clinic"
   },
   "geometry": {
    "type": "Point",
    "coordinates": [
     91.1978826,
     24.6310885
    ]
   }
  },
  {
   "type": "Feature",
   "properties": {
    "osm_type": "node",
    "osm_id": 6281151376,
    "amenity": "clinic",
    "name": "Achanpur community clinic"
   },
   "geometry": {
    "type": "Point",
    "coordinates": [
     91.3315987,
     24.7125292
    ]
   }
  },
  {
   "type": "Feature",
   "properties": {
    "osm_type": "node",
    "osm_id": 6574122409,
    "amenity": "hospital",
    "name": "খালিয়াজুরী উপজেলা স্বাস্থ্য কমপ্লেক্স"
   },
   "geometry": {
    "type": "Point",
    "coordinates": [
     91.139798,
     24.6886047
    ]
   }
  },
  {
   "type": "Feature",
   "properties": {
    "osm_type": "node",
    "osm_id": 6863630193,
    "amenity": "hospital",
    "name": "Madan Hospital"
   },
   "geometry": {
    "type": "Point",
    "coordinates": [
     90.9572141,
     24.7166869
    ]
   }
  },
  {
   "type": "Feature",
   "properties": {
    "osm_type": "node",
    "osm_id": 6863642392,
    "amenity": "hospital",
    "name": "Hazrat Sumaiya Hospital"
   },
   "geometry": {
    "type": "Point",
    "coordinates": [
     90.9500955,
     24.7149567
    ]
   }
  },
  {
   "type": "Feature",
   "properties": {
    "osm_type": "node",
    "osm_id": 6863654835,
    "amenity": "clinic",
    "name": "Surjer Hasi Clinic"
   },
   "geometry": {
    "type": "Point",
    "coordinates": [
     90.9527304,
     24.7168312
    ]
   }
  },
  {
   "type": "Feature",
   "properties": {
    "osm_type": "node",
    "osm_id": 7138660312,
    "healthcare": "centre",
    "name": "Moheshkola, PHC"
   },
   "geometry": {
    "type": "Point",
    "coordinates": [
     90.966622,
     25.1858091
    ]
   }
  },
  {
   "type": "Feature",
   "properties": {
    "osm_type": "node",
    "osm_id": 7138660355,
    "healthcare": "centre",
    "name": "Dangar, PHC"
   },
   "geometry": {
    "type": "Point",
    "coordinates": [
     91.383455,
     25.19115
    ]
   }
  },
  {
   "type": "Feature",
   "properties": {
    "osm_type": "node",
    "osm_id": 7138660369,
    "healthcare": "centre",
    "name": "Ryngku, PHC"
   },
   "geometry": {
    "type": "Point",
    "coordinates": [
     91.5587408,
     25.1674013
    ]
   }
  },
  {
   "type": "Feature",
   "properties": {
    "osm_type": "node",
    "osm_id": 7968459465,
    "healthcare": "centre",
    "name": "SubCentre, Ichamati"
   },
   "geometry": {
    "type": "Point",
    "coordinates": [
     91.7097098,
     25.1774905
    ]
   }
  },
  {
   "type": "Feature",
   "properties": {
    "osm_type": "node",
    "osm_id": 7980606811,
    "healthcare": "centre",
    "name": "SubCentre, Moheskhola"
   },
   "geometry": {
    "type": "Point",
    "coordinates": [
     90.973204,
     25.1876335
    ]
   }
  },
  {
   "type": "Feature",
   "properties": {
    "osm_type": "node",
    "osm_id": 8099566985,
    "healthcare": "centre",
    "name": "Primary Health Centre, Moheskhola"
   },
   "geometry": {
    "type": "Point",
    "coordinates": [
     90.9712802,
     25.188207
    ]
   }
  },
  {
   "type": "Feature",
   "properties": {
    "osm_type": "node",
    "osm_id": 9916643514,
    "amenity": "hospital",
    "healthcare": "hospital"
   },
   "geometry": {
    "type": "Point",
    "coordinates": [
     91.3107248,
     24.9380432
    ]
   }
  },
  {
   "type": "Feature",
   "properties": {
    "osm_type": "node",
    "osm_id": 12462035169,
    "amenity": "hospital",
    "name": "Ichamati Community Health Center"
   },
   "geometry": {
    "type": "Point",
    "coordinates": [
     91.6919619,
     25.1699082
    ]
   }
  }
 ]
}